#dP2021  5 19 12  0  0.00000000      96 __u+U ITR00 EXT  IAC
## 2158 302400.00000000   900.00000000 59353 0.5000000000000
+  116   C06C07C08C09C10C11C12C13C14C16C19C20C21C22C23C24C25
+        C26C27C28C29C30C32C33C34C35C36C37C38C39C40C41C42C43
+        C44C45C46E01E02E03E04E05E07E08E09E11E12E13E14E15E18
+        E19E21E24E25E26E27E30E31E33E36G01G02G03G04G05G06G07
+        G08G09G10G12G13G14G15G16G17G18G19G20G21G22G23G24G25
+        G26G27G28G29G30G31G32J01J02J03R01R02R03R04R05R07R08
+        R09R11R12R13R14R15R16R17R18R19R20R21R22R24  0  0  0
++        10 10  9 10  8  7  8  9  9  9  8  8  9 10  7  7  8
++        10 10  7  9  8  8  9 10  9  9  7 10 10 11  9  8  9
++        10 10  9  8  7  8  8  7  8  8  7  8  9  9  9  8  8
++         8  8  7  7  8  7  8  8  9  7  8  8  7  9  7  8  7
++         7  7  8  8  8  7  7  8  9  8  7  8  8  7  7  7  7
++         8  7  8  7  6  8  7 10 10 11  9  9  7  8  9  8  8
++        13  8  9  8  7  7  8  9  8  8  8  8  9  7  0  0  0
%c M  cc GPS ccc cccc cccc cccc cccc ccccc ccccc ccccc ccccc
%c cc cc ccc ccc cccc cccc cccc cccc ccccc ccccc ccccc ccccc
%f  0.0000000  0.000000000  0.00000000000  0.000000000000000
%f  0.0000000  0.000000000  0.00000000000  0.000000000000000
%i    0    0    0    0      0      0      0      0         0
%i    0    0    0    0      0      0      0      0         0
/* IAC                                ULTRA-RAPID PREDICTION
/* S/V CLOCKS ARE ALIGNED TO GNSS TIME                      
/* G:C1WC2W R:C1PC2P E:C1XC5X C:C2IC6I J:C1CC2S             
/* PCV:IGS14_2148 OL/AL:FES2004  NONE     YN ORB:CoN CLK:CoN
*  2021 05 20  1 45  0.00000000
PC06 -13236.730992  37403.121599 -13044.056971    404.332574
PC07 -12253.358888  23767.072359  32869.927677    162.842285
PC08 -25778.850936  26126.185001 -20982.501152   -890.603945
PC09  -4641.788084  41636.679069   1869.130458    511.138329
PC10   4203.131328  30057.619840  29639.858073    -40.480736
PC11  -2285.758967  27260.404154  -5556.002069    350.848062
PC12 -12541.304485  21960.330551  11844.973233    876.927067
PC13 -12778.785517  27500.410187 -29301.617165    267.435258
PC14   6507.264431  21197.443196 -16950.237724    777.701923
PC16 -11072.401284  39065.399372 -10803.675351   -847.668618
PC19 -15057.584218 -21540.746629   9378.632034    841.214266
PC20   1547.778669 -18059.918270  21229.353827   -909.713499
PC21 -18042.755374   3579.074201 -20954.203898   -939.877076
PC22 -23419.662521 -12635.797189  -8336.801100   -955.155946
PC23  23650.683692   3005.083722  14511.445790   -911.547603
PC24 -13492.332055  17439.350234  17110.880110   -857.350753
PC25   8339.109446  14102.857005  22584.661005   -914.380432
PC26 -25421.175333  11248.316179   2638.470888    904.668070
PC27  15915.231493 -13660.786905 -18439.236791    534.482602
PC28  14481.309524   7303.268917 -22710.330098    -72.392232
PC29  -5481.509636 -23722.854077  13629.260934    394.612377
PC30   7328.329908 -26662.732958  -3865.789373    467.622880
PC32  18062.432550  -3715.262447  20970.436461   -931.680934
PC33  15170.910219  21474.288904  -9373.716299   -937.612319
PC34  -6928.643681  26835.254143   3124.259081   -669.581906
PC35 -14674.802507  -7232.087347  22602.163578   -272.835275
PC36  -7627.972945 -14433.050603 -22607.223948   -726.569689
PC37  25938.797757 -10114.606039  -1766.043588   -889.626191
PC38 -20062.045716  28323.943294 -24009.539957    149.864955
PC39  -7027.830211  40518.352753  -8903.181820     31.212580
PC40   -946.855202  25497.466261  33617.525615    162.664491
PC41  23481.793990  12739.086840   8121.648897   -944.455967
PC42  -2217.530696  17720.994877 -21399.298892   -914.625460
PC43   5124.120635  24035.403200 -13207.076780   -738.012643
PC44 -15573.086218  13935.077877  18465.425576    196.626652
PC45 -23706.886065  -2785.941580 -14464.735689    444.719050
PC46  12457.576775 -17485.299854 -17803.732967    263.131256
PE01 -11640.142511  14095.062343  23280.398089  -1111.405463
PE02  11489.714553 -14147.296447 -23323.864833    220.255254
PE03   4415.989980 -23187.319403  17857.076167   -432.771094
PE04  10014.116478  27824.622118  -1331.834354   -774.556388
PE05  16456.912451  -4866.690183  24126.445996   -279.622327
PE07 -18768.052246 -16091.614775 -16257.729206   -539.731341
PE08 -10347.406232 -27704.656719   1051.130274   5999.404713
PE09  18800.452698  15887.616913  16463.949034   5662.069009
PE11  16240.607370   4953.619098 -24259.282249   5959.088771
PE12    249.489182  21400.135541 -20441.010472   5202.165386
PE13 -15910.410071  -5305.556009  24389.729564    416.630119
PE14 -10297.233243  17385.674730  15007.169919  -1436.944623
PE15   -280.451933 -21362.784440  20494.300207    813.365360
PE18  18145.181336 -10726.151948 -23259.096883  -1573.034302
PE19  -5965.914539  21624.260217 -19301.133519    281.177540
PE21 -26954.551838   3908.355890  11588.627287   -665.874745
PE24  26838.861743   9561.024914   7976.599734   -909.327388
PE25  27045.943011  -3776.761391 -11415.214691   -534.345152
PE26 -22266.725920  14371.480248  13182.293650   1790.910062
PE27 -27263.528342  -8970.424964  -7250.867820    -36.078714
PE30 -10435.497665 -16722.318634 -22095.525215   2931.675451
PE31  11537.970169  16493.129112  21708.371914   -481.336447
PE33 -15481.553154  24808.320058  -4542.933367   -468.788420
PE36  22153.980127 -13862.221454 -13912.353156   -209.425358
PG01 -10843.189191  20413.003641 -13020.956260    684.096220
PG02  21368.653035 -12843.396341  -8576.003939   -605.636685
PG03  -2379.860724  15056.714966 -21840.783130   -168.672319
PG04  -1950.526920  25157.425689  -8191.299259   -196.939431
PG05  18009.334533  -7632.460281  17901.070180    -42.441941
PG06  19654.571535  -1237.350144 -17794.177472     17.505134
PG07   3132.821091  16642.172149  20698.251688    155.654338
PG08  -7474.451680  19430.412907  16300.992238    -21.852995
PG09   6907.221685  25526.663938   2292.872624   -346.499900
PG10 -23336.978343 -11931.396485   5225.345531   -125.413409
PG12   5519.970775 -14009.137433 -22136.361634    -43.426612
PG13  13107.127438 -11423.645793  19907.016688    134.180448
PG14  22533.207924  13064.432036   5277.096126     83.394683
PG15   5647.343200 -20489.719950  15345.859762   -148.213434
PG16 -21574.290429   1703.311544  15454.569396   -327.915217
PG17  12677.188255  16887.659097 -15681.954481    445.124705
PG18  -5849.778375 -14367.137050  21541.149610    349.928384
PG19  14707.066805   8007.204180 -20931.265873      2.286260
PG20   9316.923401 -13644.248442  20697.095159    522.019832
PG21 -16193.754974  20156.924917  -4083.046723    119.329349
PG22 -12751.868503  11920.519209 -19774.435058   -609.994278
PG23 -15490.327788 -15754.020377  14756.073787    105.209242
PG24  13511.089566 -21355.628927  -7734.468768     87.885959
PG25  -8560.837949 -16981.053068 -18914.927246    140.392629
PG26 -25680.257311  -2640.465762   6756.940839     87.552131
PG27 -13108.454385   8336.615032  21310.606567   -133.003651
PG28  24080.319582  10937.229902   -204.632263    568.574980
PG29  -4438.794552 -26060.525470   2228.923688   -349.975438
PG30  15101.212044   7307.807724  20695.855169   -428.294157
PG31 -21535.989557   3381.117046 -15569.137680   -118.267611
PG32 -14897.195393 -13976.465910 -16954.502873     20.875502
PJ01 -22004.786525  19004.274450 -25960.314526   -381.552719
PJ02 -29195.244154  23591.074906  24067.361584      0.038119
PJ03 -29285.434775  26671.224106  19423.125707     -5.863691
PR01   9489.998640  20483.544879 -11886.433167     79.707954
PR02  17792.146978  16001.197714   8802.097978    479.267721
PR03  14140.634738   1599.342054  21205.425930     36.260370
PR04   2447.559131 -13311.133537  21654.811508     87.554212
PR05 -10489.199578 -20996.326278  10030.838666     72.072389
PR07 -13842.397129  -1123.838706 -21362.846896    -42.445285
PR08  -2434.554471  13413.960088 -21494.842471    -59.075021
PR09 -20758.116730  -3764.223539 -14268.337712     -6.278735
PR11 -14957.615007  10861.716675  17580.349981     -5.312103
PR12   4247.938316  10394.662230  22927.229585    230.313404
PR13  20355.054870   3871.659308  14863.364595    -55.002828
PR14  24882.129588  -5052.535251  -2535.756450     64.458947
PR15  14686.519108 -10803.567325 -17821.503067    103.746317
PR16  -5792.635139 -10177.295929 -22694.919129    -15.269804
PR17  13449.068370 -10182.313826 -19116.989942    425.520059
PR18  11520.858381 -22222.508872  -5051.283081     77.128280
PR19   4558.927346 -22573.502910  10964.733844   -144.392396
PR20  -7259.931979  -8694.882626  22862.576126    -49.407554
PR21 -13546.490285  11356.746846  18394.703945   -210.207180
PR22 -11244.662716  22483.790138   3985.810857   -113.528237
PR24   8198.314286   8019.395711 -22773.922737     43.322442
EOF
